[
  {
    "OBJECT_NAME": "STARLINK-34832",
    "OBJECT_ID": "25195T",
    "EPOCH": "2025-11-10T09:57:16.984224",
    "MEAN_MOTION": 15.3965562,
    "ECCENTRICITY": 0.0001782,
    "INCLINATION": 53.1632,
    "RA_OF_ASC_NODE": 92.8095,
    "ARG_OF_PERICENTER": 321.4424,
    "MEAN_ANOMALY": 38.6453,
    "EPHEMERIS_TYPE": 0,
    "CLASSIFICATION_TYPE": "U",
    "NORAD_CAT_ID": 65475,
    "ELEMENT_SET_NO": 999,
    "REV_AT_EPOCH": 1170,
    "BSTAR": 0.0014742,
    "MEAN_MOTION_DOT": 0.00059097,
    "MEAN_MOTION_DDOT": 0.0,
    "TLE_LINE1": "1 65475U 25195T   25314.41477991  .00059097  00000+0  14742-2 0  9995",
    "TLE_LINE2": "2 65475  53.1632  92.8095 0001782 321.4424  38.6453 15.39655620 11700",
    "COMMENT": "Grouped by shell and plane from TLE"
  },
  {
    "OBJECT_NAME": "STARLINK-35098",
    "OBJECT_ID": "25195U",
    "EPOCH": "2025-11-09T19:16:18.457824",
    "MEAN_MOTION": 15.3970107,
    "ECCENTRICITY": 0.0001133,
    "INCLINATION": 53.1592,
    "RA_OF_ASC_NODE": 95.3872,
    "ARG_OF_PERICENTER": 76.3712,
    "MEAN_ANOMALY": 283.7419,
    "EPHEMERIS_TYPE": 0,
    "CLASSIFICATION_TYPE": "U",
    "NORAD_CAT_ID": 65476,
    "ELEMENT_SET_NO": 999,
    "REV_AT_EPOCH": 1161,
    "BSTAR": 0.0015839,
    "MEAN_MOTION_DOT": 0.00063657,
    "MEAN_MOTION_DDOT": 0.0,
    "TLE_LINE1": "1 65476U 25195U   25313.80299141  .00063657  00000+0  15839-2 0  9992",
    "TLE_LINE2": "2 65476  53.1592  95.3872 0001133  76.3712 283.7419 15.39701070 11619",
    "COMMENT": "Grouped by shell and plane from TLE"
  },
  {
    "OBJECT_NAME": "STARLINK-35071",
    "OBJECT_ID": "25195V",
    "EPOCH": "2025-11-09T16:02:12.890400",
    "MEAN_MOTION": 15.39666729,
    "ECCENTRICITY": 0.0002395,
    "INCLINATION": 53.1578,
    "RA_OF_ASC_NODE": 95.9685,
    "ARG_OF_PERICENTER": 90.3527,
    "MEAN_ANOMALY": 269.7752,
    "EPHEMERIS_TYPE": 0,
    "CLASSIFICATION_TYPE": "U",
    "NORAD_CAT_ID": 65477,
    "ELEMENT_SET_NO": 999,
    "REV_AT_EPOCH": 1159,
    "BSTAR": 0.0012776999999999999,
    "MEAN_MOTION_DOT": 0.00051133,
    "MEAN_MOTION_DDOT": 0.0,
    "TLE_LINE1": "1 65477U 25195V   25313.66820475  .00051133  00000+0  12777-2 0  9991",
    "TLE_LINE2": "2 65477  53.1578  95.9685 0002395  90.3527 269.7752 15.39666729 11595",
    "COMMENT": "Grouped by shell and plane from TLE"
  },
  {
    "OBJECT_NAME": "STARLINK-35143",
    "OBJECT_ID": "25195AD",
    "EPOCH": "2025-11-10T15:45:35.324640",
    "MEAN_MOTION": 15.3021977,
    "ECCENTRICITY": 4.04e-05,
    "INCLINATION": 53.164,
    "RA_OF_ASC_NODE": 90.7364,
    "ARG_OF_PERICENTER": 23.4306,
    "MEAN_ANOMALY": 336.6713,
    "EPHEMERIS_TYPE": 0,
    "CLASSIFICATION_TYPE": "U",
    "NORAD_CAT_ID": 65485,
    "ELEMENT_SET_NO": 999,
    "REV_AT_EPOCH": 1175,
    "BSTAR": 0.0013591,
    "MEAN_MOTION_DOT": 0.00040136,
    "MEAN_MOTION_DDOT": 0.0,
    "TLE_LINE1": "1 65485U 25195AD  25314.65665885  .00040136  00000+0  13591-2 0  9998",
    "TLE_LINE2": "2 65485  53.1640  90.7364 0000404  23.4306 336.6713 15.30219770 11752",
    "COMMENT": "Grouped by shell and plane from TLE"
  }
]